TEVEL2-3                
1 63218U 25052J   26068.64540225  .00020365  00000+0  69446-3 0  9991
2 63218  97.3994 324.7775 0004761 105.7353 254.4413 15.30377031 54855
STARLINK-35513          
1 65930U 25225W   26068.54510961  .00024845  00000+0  84879-3 0  9993
2 65930  53.1585 166.5137 0001075  81.9087 278.2036 15.30176238 24388
